STARLINK-30515          
1 57983U 23151V   24189.05591336  .00000622  00000+0  61105-4 0  9996
2 57983  43.0054  69.9318 0001131 263.1626  96.9087 15.02530321 43657
STARLINK-30516          
1 57984U 23151W   24188.38780458 -.00000262  00000+0 -43223-5 0  9991
2 57984  43.0073  73.5194 0001342 273.1854  86.8834 15.02530766 43628
STARLINK-30519          
1 57985U 23151X   24188.71685813  .00000436  00000+0  47342-4 0  9994
2 57985  43.0040  71.6894 0001416 270.4834  89.5846 15.02532061 43611
STARLINK-30537          
1 57991U 23153A   24189.16726555 -.00000124  00000+0  58560-5 0  9992
2 57991  43.0031 146.5303 0001127 271.4824  88.5890 15.02535548 42726
STARLINK-30534          
1 57992U 23153B   24188.57894979  .00000729  00000+0  69043-4 0  9990
2 57992  43.0037 149.8503 0001167 268.2319  91.8390 15.02536950 42841
STARLINK-30536          
1 57993U 23153C   24188.89469543  .00001455  00000+0  12279-3 0  9996
2 57993  43.0035 147.9229 0001192 264.8959  95.1747 15.02535728 42995
STARLINK-30538          
1 57994U 23153D   24188.95451394  .00000385  00000+0  43582-4 0  9992
2 57994  43.0036 147.5086 0001202 270.2810  89.7895 15.02535176 42904
STARLINK-30517          
1 57995U 23153E   24189.21709216 -.00000394  00000+0 -14089-4 0  9994
2 57995  43.0030 146.0383 0001128 263.8310  96.2404 15.02530804 43052
STARLINK-30543          
1 57996U 23153F   24188.90325347 -.00005223  00000+0 -11781-3 0  9990
2 57996  43.0022   8.8781 0001256 249.7016 110.3706 15.40713288 44582
STARLINK-30523          
1 57997U 23153G   24188.95784105  .00000390  00000+0  43947-4 0  9995
2 57997  43.0038 147.5357 0001225 263.4545  96.6158 15.02535836 43008
STARLINK-30531          
1 57998U 23153H   24189.18712747  .00000150  00000+0  26147-4 0  9992
2 57998  43.0025 145.8200 0001506 262.7116  97.3556 15.02542365 43040
STARLINK-30552          
1 57999U 23153J   24189.21043331  .00000983  00000+0  87787-4 0  9994
2 57999  43.0035 145.9910 0001071 270.8254  89.2465 15.02537807 43056
STARLINK-30545          
1 58000U 23153K   24188.60880459  .00000304  00000+0  37539-4 0  9997
2 58000  43.0040 149.2117 0001085 268.6976  91.3742 15.02535826 42952
STARLINK-30535          
1 58001U 23153L   24188.93786430  .00000575  00000+0  57641-4 0  9994
2 58001  43.0029 147.3833 0001112 265.5263  94.5452 15.02535549 43002
STARLINK-30540          
1 58002U 23153M   24188.57562091 -.00000352  00000+0 -10987-4 0  9997
2 58002  43.0028 149.8084 0001139 266.2248  93.8464 15.02537154 42847
STARLINK-30546          
1 58003U 23153N   24189.20044378  .00001081  00000+0  95059-4 0  9993
2 58003  43.0017 145.9108 0001004 274.1864  85.8864 15.02538546 43058
STARLINK-30539          
1 58004U 23153P   24188.93120502 -.00000132  00000+0  52835-5 0  9990
2 58004  43.0038 147.3364 0001100 276.0728  83.9989 15.02535991 43002
STARLINK-30530          
1 58005U 23153Q   24188.92454373 -.00000050  00000+0  11351-4 0  9992
2 58005  43.0032 147.2806 0001157 266.7474  93.3236 15.02535850 43007
STARLINK-30526          
1 58006U 23153R   24188.87202999  .00005285  00000+0  40603-3 0  9997
2 58006  43.0032 122.5582 0001089 259.0893 100.9827 15.02533709 43281
STARLINK-30527          
1 58007U 23153S   24188.89653734  .00019107  00000+0  73827-3 0  9999
2 58007  43.0003  49.8201 0001704 266.1424  93.9232 15.25913991 44082
STARLINK-30522          
1 58008U 23153T   24188.94785381  .00000673  00000+0  64915-4 0  9997
2 58008  43.0036 147.4521 0001115 268.6732  91.3983 15.02534917 43002
STARLINK-30486          
1 58009U 23153U   24188.59548451  .00000557  00000+0  56336-4 0  9993
2 58009  43.0030 149.1092 0001141 266.4716  93.5995 15.02532897 42636
STARLINK-30520          
1 58010U 23153V   24189.18391653 -.00000273  00000+0 -51261-5 0  9991
2 58010  43.0029 146.6317 0001233 270.0000  90.0701 15.02529813 42931
STARLINK-30497          
1 58011U 23153W   24188.58227976  .00000146  00000+0  25882-4 0  9997
2 58011  43.0037 149.8587 0001206 272.4840  87.5864 15.02534311 42944
STARLINK-30525          
1 58012U 23153X   24189.17059455 -.00000288  00000+0 -62621-5 0  9991
2 58012  43.0027 146.5290 0001018 267.3788  92.6937 15.02538116 43030
STARLINK-30514          
1 58028U 23156A   24188.90671395 -.00000823  00000+0 -17050-4 0  9994
2 58028  53.1634  43.1030 0001457  80.9222 279.1943 15.28013668 42694
STARLINK-30518          
1 58029U 23156B   24189.03285342 -.00001333  00000+0 -35465-4 0  9990
2 58029  53.1658  42.4733 0001345 109.7966 250.3179 15.28019914 42719
STARLINK-30549          
1 58030U 23156C   24188.96680010 -.00001510  00000+0 -41868-4 0  9995
2 58030  53.1677  40.4438 0001604  90.8921 269.2263 15.28015224 42400
STARLINK-30556          
1 58031U 23156D   24188.87401792  .00001397  00000+0  63116-4 0  9995
2 58031  53.0918  43.5381 0001133  83.4326 276.6801 15.28008769 42678
STARLINK-30561          
1 58032U 23156E   24188.88276899  .00004358  00000+0  16988-3 0  9999
2 58032  53.1700  41.2617 0001067  87.3700 272.7422 15.28022987 42710
STARLINK-30562          
1 58033U 23156F   24188.94915979 -.00000555  00000+0 -19406-4 0  9992
2 58033  53.1649  59.3896 0001607  92.8190 267.2984 15.04918643 42467
STARLINK-30565          
1 58034U 23156G   24188.85479491  .00002890  00000+0  11696-3 0  9991
2 58034  53.1633  41.8969 0001255  78.7376 281.3765 15.28021649 42704
STARLINK-30438          
1 58035U 23156H   24188.88331613 -.00001309  00000+0 -34615-4 0  9991
2 58035  53.1630  42.9471 0000638  58.8145 301.2917 15.28029191 42643
STARLINK-30437          
1 58036U 23156J   24188.87897776  .00004604  00000+0  17879-3 0  9999
2 58036  53.1672  42.9092 0001001  74.0052 286.1058 15.28013369 42648
STARLINK-30533          
1 58037U 23156K   24188.94164044  .00001161  00000+0  10044-3 0  9995
2 58037  53.1641  59.3318 0001431  86.9064 273.2090 15.04926187 42468
STARLINK-30560          
1 58038U 23156L   24188.98147705 -.00000972  00000+0 -22444-4 0  9994
2 58038  53.1676  42.8396 0001375  95.4719 264.6438 15.28022879 42448
STARLINK-30559          
1 58039U 23156M   24188.88918269 -.00002593  00000+0 -16186-3 0  9991
2 58039  53.1629  59.7275 0001543  84.8163 275.3002 15.04923212 42454
STARLINK-30555          
1 58040U 23156N   24188.88596462 -.00000286  00000+0 -58385-6 0  9997
2 58040  53.1625  59.7133 0001409  93.9440 266.1711 15.04923100 42456
STARLINK-30542          
1 58041U 23156P   24188.86930506  .00004469  00000+0  17389-3 0  9998
2 58041  53.1511  42.9956 0001398  88.9893 271.1267 15.28021141 42688
STARLINK-30563          
1 58042U 23156Q   24188.97634903  .00027554  00000+0  10034-2 0  9992
2 58042  53.1713  41.9247 0001198  78.2552 281.8582 15.28031592 42710
STARLINK-30564          
1 58043U 23156R   24189.01826576  .00012600  00000+0  46690-3 0  9992
2 58043  53.1646  40.7683 0000753  53.2201 306.8868 15.28010336 42737
STARLINK-30547          
1 58044U 23156S   24189.04441358  .00000985  00000+0  88188-4 0  9999
2 58044  53.1645  58.5248 0001486  96.0688 264.0471 15.04931126 42478
STARLINK-30550          
1 58045U 23156T   24189.00001157 -.00006528  00000+0 -15335-3 0  9999
2 58045  53.1611 325.8223 0001336  86.8475 335.0020 15.39620766 43754
STARLINK-30548          
1 58046U 23156U   24188.94486743  .00001106  00000+0  96653-4 0  9998
2 58046  53.1632  59.3653 0001493  92.5079 267.6082 15.04921250 42416
STARLINK-30529          
1 58047U 23156V   24188.93520889 -.00001100  00000+0 -57477-4 0  9995
2 58047  53.1643  59.3009 0001395  93.4378 266.6771 15.04923178 42412
STARLINK-30554          
1 58048U 23156W   24188.93198504  .00000964  00000+0  86682-4 0  9996
2 58048  53.1643  59.2884 0001410  84.8495 275.2656 15.04929291 42415
STARLINK-30568          
1 58051U 23158A   24189.06174538  .00000143  00000+0  25690-4 0  9999
2 58051  43.0042 108.6095 0001242 273.8962  86.1738 15.02531682 41505
STARLINK-30575          
1 58052U 23158B   24189.13488348  .00000304  00000+0  37585-4 0  9990
2 58052  43.0021 108.2962 0000999 262.8955  97.1774 15.02532171 41685
STARLINK-30577          
1 58053U 23158C   24188.19419765 -.00000314  00000+0 -82085-5 0  9992
2 58053  43.0033 113.2564 0001089 266.2227  93.8491 15.02536499 41545
STARLINK-30566          
1 58054U 23158D   24189.11822801 -.00049287  00000+0 -36610-2 0  9997
2 58054  43.0004 108.1727 0001639 249.5866 110.4800 15.02516479 41683
STARLINK-30544          
1 58055U 23158E   24189.16806028  .00000230  00000+0  32110-4 0  9992
2 58055  43.0042 107.6843 0001325 269.3740  90.6951 15.02533531 41642
STARLINK-30553          
1 58056U 23158F   24189.11157022  .00000338  00000+0  40113-4 0  9992
2 58056  43.0026 108.1197 0001056 270.4569  89.6152 15.02537719 41672
STARLINK-30541          
1 58057U 23158G   24189.18137917  .00000064  00000+0  19777-4 0  9999
2 58057  43.0033 107.7852 0001190 273.5748  86.4959 15.02539934 41688
STARLINK-30573          
1 58058U 23158H   24189.10824381  .00000453  00000+0  48642-4 0  9995
2 58058  43.0052 108.0937 0000992 267.5796  92.4933 15.02531629 41685
STARLINK-30582          
1 58059U 23158J   24188.83234309  .00000112  00000+0  23395-4 0  9990
2 58059  43.0053 109.4671 0001255 268.0626  92.0073 15.02533443 41641
STARLINK-30558          
1 58060U 23158K   24189.13821373 -.00000064  00000+0  10363-4 0  9997
2 58060  43.0034 108.3063 0001382 274.3170  85.7515 15.02526027 41684
STARLINK-30579          
1 58061U 23158L   24188.43075878  .00001684  00000+0  13978-3 0  9993
2 58061  43.0061  86.2974 0001325 267.1974  92.8717 15.02524427 41875
STARLINK-30588          
1 58062U 23158M   24188.89215989  .00000215  00000+0  30956-4 0  9998
2 58062  43.0033 109.0534 0001136 272.0386  88.0326 15.02538924 41659
STARLINK-30585          
1 58063U 23158N   24188.88217185  .00000364  00000+0  42034-4 0  9993
2 58063  43.0038 108.9831 0001306 269.2030  90.8662 15.02531413 41656
